[{"OBJECT_NAME":"STARLINK-2171","OBJECT_ID":"2021-017AJ","EPOCH":"2026-03-10T00:00:02.999808","MEAN_MOTION":15.70905931,"ECCENTRICITY":0.0002371,"INCLINATION":53.0436,"RA_OF_ASC_NODE":167.0252,"ARG_OF_PERICENTER":165.5816,"MEAN_ANOMALY":179.0332,"EPHEMERIS_TYPE":0,"CLASSIFICATION_TYPE":"U","NORAD_CAT_ID":47754,"ELEMENT_SET_NO":999,"REV_AT_EPOCH":590,"BSTAR":0.00011207161,"MEAN_MOTION_DOT":0.00013697,"MEAN_MOTION_DDOT":0},{"OBJECT_NAME":"STARLINK-11722 [DTC]","OBJECT_ID":"2025-111F","EPOCH":"2026-03-09T21:43:59.343744","MEAN_MOTION":15.70909604,"ECCENTRICITY":0.00013063,"INCLINATION":42.9983,"RA_OF_ASC_NODE":332.4991,"ARG_OF_PERICENTER":297.358,"MEAN_ANOMALY":62.7155,"EPHEMERIS_TYPE":0,"CLASSIFICATION_TYPE":"U","NORAD_CAT_ID":64128,"ELEMENT_SET_NO":999,"REV_AT_EPOCH":4662,"BSTAR":0.00068630924,"MEAN_MOTION_DOT":0.0008882,"MEAN_MOTION_DDOT":0}]
